{
  "type": "FeatureCollection",
  "features": [
    {
      "type": "Feature",
      "properties": {
        "norad_id": 30750,
        "name": "FENGYUN 1C DEB",
        "group": "fengyun-1c-debris",
        "lat": -0.6183930372811494,
        "lon": 70.70902253891327,
        "alt_km": 791.2949745523501,
        "timestamp": "2025-12-21T20:41:08.239322+00:00",
        "meta_object_name": "FENGYUN 1C DEB",
        "meta_object_id": "1999-025ATL",
        "meta_epoch": "2025-12-21T04:00:53.645184",
        "meta_mean_motion": 14.28668849,
        "meta_eccentricity": 0.00397435,
        "meta_inclination": 98.9197,
        "meta_ra_of_asc_node": 69.902,
        "meta_arg_of_pericenter": 75.6957,
        "meta_mean_anomaly": 313.7054,
        "meta_ephemeris_type": 0,
        "meta_classification_type": "U",
        "meta_norad_cat_id": 30750,
        "meta_element_set_no": 999,
        "meta_rev_at_epoch": 96902,
        "meta_bstar": 0.0011167484,
        "meta_mean_motion_dot": 2.785e-05,
        "meta_mean_motion_ddot": 0,
        "tle_line1": "1 30750U 99025ATL 25355.16728756  .00002785  00000+0  11167-2 0  9991",
        "tle_line2": "2 30750  98.9197  69.9020 0039743  75.6957 313.7054 14.28668849969026"
      },
      "geometry": {
        "type": "Point",
        "coordinates": [
          70.70902253891327,
          -0.6183930372811494
        ]
      }
    },
    {
      "type": "Feature",
      "properties": {
        "norad_id": 30751,
        "name": "FENGYUN 1C DEB",
        "group": "fengyun-1c-debris",
        "lat": 11.73379955181153,
        "lon": 53.142382643070846,
        "alt_km": 823.2151506936752,
        "timestamp": "2025-12-21T20:41:08.239331+00:00",
        "meta_object_name": "FENGYUN 1C DEB",
        "meta_object_id": "1999-025ATM",
        "meta_epoch": "2025-12-21T02:16:32.105856",
        "meta_mean_motion": 14.15243289,
        "meta_eccentricity": 0.00515891,
        "meta_inclination": 98.8542,
        "meta_ra_of_asc_node": 54.2364,
        "meta_arg_of_pericenter": 72.8322,
        "meta_mean_anomaly": 353.6384,
        "meta_ephemeris_type": 0,
        "meta_classification_type": "U",
        "meta_norad_cat_id": 30751,
        "meta_element_set_no": 999,
        "meta_rev_at_epoch": 96394,
        "meta_bstar": 0.0010212807,
        "meta_mean_motion_dot": 1.968e-05,
        "meta_mean_motion_ddot": 0,
        "tle_line1": "1 30751U 99025ATM 25355.09481604  .00001968  00000+0  10213-2 0  9995",
        "tle_line2": "2 30751  98.8542  54.2364 0051589  72.8322 353.6384 14.15243289963942"
      },
      "geometry": {
        "type": "Point",
        "coordinates": [
          53.142382643070846,
          11.73379955181153
        ]
      }
    },
    {
      "type": "Feature",
      "properties": {
        "norad_id": 30753,
        "name": "FENGYUN 1C DEB",
        "group": "fengyun-1c-debris",
        "lat": 81.18775393460314,
        "lon": -56.04957100734968,
        "alt_km": 863.3118784657581,
        "timestamp": "2025-12-21T20:41:08.239340+00:00",
        "meta_object_name": "FENGYUN 1C DEB",
        "meta_object_id": "1999-025ATP",
        "meta_epoch": "2025-12-21T10:03:46.619712",
        "meta_mean_motion": 14.12679776,
        "meta_eccentricity": 0.00552067,
        "meta_inclination": 98.8066,
        "meta_ra_of_asc_node": 33.8648,
        "meta_arg_of_pericenter": 330.0264,
        "meta_mean_anomaly": 29.775,
        "meta_ephemeris_type": 0,
        "meta_classification_type": "U",
        "meta_norad_cat_id": 30753,
        "meta_element_set_no": 999,
        "meta_rev_at_epoch": 96474,
        "meta_bstar": 0.00097101928,
        "meta_mean_motion_dot": 1.782e-05,
        "meta_mean_motion_ddot": 0,
        "tle_line1": "1 30753U 99025ATP 25355.41928958  .00001782  00000+0  97102-3 0  9998",
        "tle_line2": "2 30753  98.8066  33.8648 0055206 330.0264  29.7750 14.12679776964745"
      },
      "geometry": {
        "type": "Point",
        "coordinates": [
          -56.04957100734968,
          81.18775393460314
        ]
      }
    },
    {
      "type": "Feature",
      "properties": {
        "norad_id": 30755,
        "name": "FENGYUN 1C DEB",
        "group": "fengyun-1c-debris",
        "lat": -8.71260397386772,
        "lon": 168.90135296627363,
        "alt_km": 679.7080017477992,
        "timestamp": "2025-12-21T20:41:08.239349+00:00",
        "meta_object_name": "FENGYUN 1C DEB",
        "meta_object_id": "1999-025ATR",
        "meta_epoch": "2025-12-19T23:03:47.003616",
        "meta_mean_motion": 14.44983801,
        "meta_eccentricity": 0.01508302,
        "meta_inclination": 98.2582,
        "meta_ra_of_asc_node": 348.3279,
        "meta_arg_of_pericenter": 246.9728,
        "meta_mean_anomaly": 140.2536,
        "meta_ephemeris_type": 0,
        "meta_classification_type": "U",
        "meta_norad_cat_id": 30755,
        "meta_element_set_no": 999,
        "meta_rev_at_epoch": 98549,
        "meta_bstar": 0.00036855233,
        "meta_mean_motion_dot": 1.428e-05,
        "meta_mean_motion_ddot": 0,
        "tle_line1": "1 30755U 99025ATR 25353.96096069  .00001428  00000+0  36855-3 0  9992",
        "tle_line2": "2 30755  98.2582 348.3279 0150830 246.9728 140.2536 14.44983801985495"
      },
      "geometry": {
        "type": "Point",
        "coordinates": [
          168.90135296627363,
          -8.71260397386772
        ]
      }
    },
    {
      "type": "Feature",
      "properties": {
        "norad_id": 30756,
        "name": "FENGYUN 1C DEB",
        "group": "fengyun-1c-debris",
        "lat": 8.65111754084132,
        "lon": 62.00738280432843,
        "alt_km": 822.5990231593951,
        "timestamp": "2025-12-21T20:41:08.239357+00:00",
        "meta_object_name": "FENGYUN 1C DEB",
        "meta_object_id": "1999-025ATS",
        "meta_epoch": "2025-12-21T03:58:35.982336",
        "meta_mean_motion": 14.18320824,
        "meta_eccentricity": 0.00717135,
        "meta_inclination": 98.9906,
        "meta_ra_of_asc_node": 62.6825,
        "meta_arg_of_pericenter": 291.7589,
        "meta_mean_anomaly": 123.4888,
        "meta_ephemeris_type": 0,
        "meta_classification_type": "U",
        "meta_norad_cat_id": 30756,
        "meta_element_set_no": 999,
        "meta_rev_at_epoch": 96524,
        "meta_bstar": 0.00099091259,
        "meta_mean_motion_dot": 2.048e-05,
        "meta_mean_motion_ddot": 0,
        "tle_line1": "1 30756U 99025ATS 25355.16569424  .00002048  00000+0  99091-3 0  9997",
        "tle_line2": "2 30756  98.9906  62.6825 0071713 291.7589 123.4888 14.18320824965246"
      },
      "geometry": {
        "type": "Point",
        "coordinates": [
          62.00738280432843,
          8.65111754084132
        ]
      }
    },
    {
      "type": "Feature",
      "properties": {
        "norad_id": 30758,
        "name": "FENGYUN 1C DEB",
        "group": "fengyun-1c-debris",
        "lat": 2.6149760281871806,
        "lon": 114.27029140346774,
        "alt_km": 812.6905130164523,
        "timestamp": "2025-12-21T20:41:08.239391+00:00",
        "meta_object_name": "FENGYUN 1C DEB",
        "meta_object_id": "1999-025ATU",
        "meta_epoch": "2025-12-21T07:15:10.154304",
        "meta_mean_motion": 14.17140988,
        "meta_eccentricity": 0.00384244,
        "meta_inclination": 99.0187,
        "meta_ra_of_asc_node": 114.1184,
        "meta_arg_of_pericenter": 338.1573,
        "meta_mean_anomaly": 50.5756,
        "meta_ephemeris_type": 0,
        "meta_classification_type": "U",
        "meta_norad_cat_id": 30758,
        "meta_element_set_no": 999,
        "meta_rev_at_epoch": 96612,
        "meta_bstar": 0.00077306641,
        "meta_mean_motion_dot": 1.523e-05,
        "meta_mean_motion_ddot": 0,
        "tle_line1": "1 30758U 99025ATU 25355.30220086  .00001523  00000+0  77307-3 0  9996",
        "tle_line2": "2 30758  99.0187 114.1184 0038424 338.1573  50.5756 14.17140988966125"
      },
      "geometry": {
        "type": "Point",
        "coordinates": [
          114.27029140346774,
          2.6149760281871806
        ]
      }
    },
    {
      "type": "Feature",
      "properties": {
        "norad_id": 30759,
        "name": "FENGYUN 1C DEB",
        "group": "fengyun-1c-debris",
        "lat": -30.32336725349766,
        "lon": -80.88779130598547,
        "alt_km": 713.9957304854624,
        "timestamp": "2025-12-21T20:41:08.239400+00:00",
        "meta_object_name": "FENGYUN 1C DEB",
        "meta_object_id": "1999-025ATV",
        "meta_epoch": "2025-12-21T06:46:02.424864",
        "meta_mean_motion": 14.54663869,
        "meta_eccentricity": 0.0008726,
        "meta_inclination": 99.2584,
        "meta_ra_of_asc_node": 103.9456,
        "meta_arg_of_pericenter": 144.8157,
        "meta_mean_anomaly": 270.5169,
        "meta_ephemeris_type": 0,
        "meta_classification_type": "U",
        "meta_norad_cat_id": 30759,
        "meta_element_set_no": 999,
        "meta_rev_at_epoch": 97779,
        "meta_bstar": 0.0016955,
        "meta_mean_motion_dot": 7.205e-05,
        "meta_mean_motion_ddot": 0,
        "tle_line1": "1 30759U 99025ATV 25355.28197251  .00007205  00000+0  16955-2 0  9995",
        "tle_line2": "2 30759  99.2584 103.9456 0008726 144.8157 270.5169 14.54663869977795"
      },
      "geometry": {
        "type": "Point",
        "coordinates": [
          -80.88779130598547,
          -30.32336725349766
        ]
      }
    }
  ]
}